OBJECT_NAME,OBJECT_ID,EPOCH,MEAN_MOTION,ECCENTRICITY,INCLINATION,RA_OF_ASC_NODE,ARG_OF_PERICENTER,MEAN_ANOMALY,EPHEMERIS_TYPE,CLASSIFICATION_TYPE,NORAD_CAT_ID,ELEMENT_SET_NO,REV_AT_EPOCH,BSTAR,MEAN_MOTION_DOT,MEAN_MOTION_DDOT
IONOSFERA-M 2,2024-199B,2026-07-06T03:29:47.960736,14.22761240,.00003361,98.7148,60.0261,73.2244,286.8971,0,U,61736,999,13352,.42527734E-4,.51E-6,0
PRSC-EO1,2025-012A,2026-07-06T07:29:29.910336,15.17705589,.00061416,97.4213,259.3980,176.6606,183.4670,0,U,62725,999,8109,.29464764E-3,.5877E-4,0
BIOMASS,2025-090A,2026-07-05T13:57:45.690912,14.67535560,.00014472,98.0746,13.6270,90.1074,270.0297,0,U,63772,999,6338,.25544778E-3,.1401E-4,0
GOSAT-GW (IBUKI GW),2025-141A,2026-07-06T06:44:34.767744,14.67553198,.00014118,98.0567,124.2878,83.7676,276.3689,0,U,64694,999,5464,.14674729E-3,.785E-5,0
IONOSFERA-M 3,2025-155A,2026-07-06T07:42:27.296064,14.21489721,.00019953,98.6034,148.7453,125.9565,234.1798,0,U,64876,999,4912,.39704889E-4,.44E-6,0
IONOSFERA-M 4,2025-155B,2026-07-06T06:51:13.229856,14.21492087,.00016456,98.6040,148.6279,108.0521,252.0836,0,U,64877,999,4911,.41493637E-4,.48E-6,0
MICROCARB,2025-156A,2026-07-06T04:12:35.142336,14.72878376,.00169077,98.0076,264.0040,199.7001,160.3555,0,U,64899,999,5076,.10149781E-3,.601E-5,0
CO3D 3,2025-156B,2026-07-05T19:34:17.843520,15.20205819,.000186,97.4327,265.2409,104.9652,255.1789,0,U,64900,999,5236,.242436E-3,.5185E-4,0
CO3D 4,2025-156C,2026-07-06T01:53:39.478560,15.20198702,.00009606,97.4333,265.5000,171.0741,189.0511,0,U,64901,999,5240,.8715054E-4,.1819E-4,0
CO3D 2,2025-156D,2026-07-06T05:49:59.654784,15.20196835,.00014012,97.4327,265.5610,86.8663,273.2732,0,U,64902,999,5242,.22670756E-3,.4843E-4,0
CO3D 1,2025-156E,2026-07-06T04:15:25.860096,15.20200385,.00013135,97.4328,265.4964,98.3367,261.8017,0,U,64903,999,5241,.20836094E-3,.4445E-4,0
PRSC-S1,2025-164A,2026-07-06T06:58:06.361824,15.06590414,.00053181,41.1291,180.2106,134.5840,225.5409,0,U,65055,999,5131,.20440106E-3,.2904E-4,0
SENTINEL-6B,2025-264A,2026-07-06T03:16:21.504000,12.80930081,.0007892,66.0415,95.8222,268.8789,91.1322,0,U,66514,999,2959,.68988059E-4,-.45E-6,0
CAS500-3,2025-274F,2026-07-05T18:29:56.054688,14.88369656,.00067666,97.7439,114.3992,62.7388,297.4518,0,U,66655,999,3291,.18648298E-3,.1674E-4,0
CSG-3,2026-001A,2026-07-06T02:26:50.512128,14.82147569,.00014711,97.8892,10.4300,93.3728,266.7654,0,U,67304,999,2726,.46394837E-4,.317E-5,0
PRSC-E03,2026-092A,2026-07-05T21:03:19.667808,15.06777127,.00038955,38.0023,339.4619,190.9586,169.1091,0,U,68835,999,1077,.23623263E-3,.3476E-4,0
CAS500-2,2026-100AK,2026-07-06T04:02:59.446176,15.20831491,.00084571,97.3875,84.6676,329.3028,30.7712,0,U,69013,999,969,.28761196E-3,.6284E-4,0
