IONOSFERA-M 2           
1 61736U 24199B   26187.14569399  .00000051  00000+0  42528-4 0  9998
2 61736  98.7148  60.0261 0000336  73.2244 286.8971 14.22761240133525
PRSC-EO1                
1 62725U 25012A   26187.31215174  .00005877  00000+0  29465-3 0  9995
2 62725  97.4213 259.3980 0006141 176.6606 183.4670 15.17705589 81095
BIOMASS                 
1 63772U 25090A   26186.58177883  .00001401  00000+0  25545-3 0  9990
2 63772  98.0746  13.6270 0001447  90.1074 270.0297 14.67535560 63386
GOSAT-GW (IBUKI GW)     
1 64694U 25141A   26187.28095796  .00000785  00000+0  14675-3 0  9997
2 64694  98.0567 124.2878 0001411  83.7676 276.3689 14.67553198 54641
IONOSFERA-M 3           
1 64876U 25155A   26187.32114926  .00000044  00000+0  39705-4 0  9996
2 64876  98.6034 148.7453 0001995 125.9565 234.1798 14.21489721 49121
IONOSFERA-M 4           
1 64877U 25155B   26187.28556979  .00000048  00000+0  41494-4 0  9992
2 64877  98.6040 148.6279 0001645 108.0521 252.0836 14.21492087 49110
MICROCARB               
1 64899U 25156A   26187.17540674  .00000601  00000+0  10150-3 0  9999
2 64899  98.0076 264.0040 0016907 199.7001 160.3555 14.72878376 50760
CO3D 3                  
1 64900U 25156B   26186.81548430  .00005185  00000+0  24244-3 0  9991
2 64900  97.4327 265.2409 0001860 104.9652 255.1789 15.20205819 52369
CO3D 4                  
1 64901U 25156C   26187.07892915  .00001819  00000+0  87151-4 0  9998
2 64901  97.4333 265.5000 0000960 171.0741 189.0511 15.20198702 52406
CO3D 2                  
1 64902U 25156D   26187.24305156  .00004843  00000+0  22671-3 0  9999
2 64902  97.4327 265.5610 0001401  86.8663 273.2732 15.20196835 52422
CO3D 1                  
1 64903U 25156E   26187.17738264  .00004445  00000+0  20836-3 0  9991
2 64903  97.4328 265.4964 0001313  98.3367 261.8017 15.20200385 52410
PRSC-S1                 
1 65055U 25164A   26187.29035141  .00002904  00000+0  20440-3 0  9995
2 65055  41.1291 180.2106 0005318 134.5840 225.5409 15.06590414 51313
SENTINEL-6B             
1 66514U 25264A   26187.13636000 -.00000045  00000+0  68988-4 0  9996
2 66514  66.0415  95.8222 0007892 268.8789  91.1322 12.80930081 29593
CAS500-3                
1 66655U 25274F   26186.77078767  .00001674  00000+0  18648-3 0  9997
2 66655  97.7439 114.3992 0006766  62.7388 297.4518 14.88369656 32914
CSG-3                   
1 67304U 26001A   26187.10197352  .00000317  00000+0  46395-4 0  9992
2 67304  97.8892  10.4300 0001471  93.3728 266.7654 14.82147569 27268
PRSC-E03                
1 68835U 26092A   26186.87731097  .00003476  00000+0  23623-3 0  9992
2 68835  38.0023 339.4619 0003895 190.9586 169.1091 15.06777127 10771
CAS500-2                
1 69013U 26100AK  26187.16874359  .00006284  00000+0  28761-3 0  9991
2 69013  97.3875  84.6676 0008457 329.3028  30.7712 15.20831491  9696
